OBJECT_NAME,OBJECT_ID,EPOCH,MEAN_MOTION,ECCENTRICITY,INCLINATION,RA_OF_ASC_NODE,ARG_OF_PERICENTER,MEAN_ANOMALY,EPHEMERIS_TYPE,CLASSIFICATION_TYPE,NORAD_CAT_ID,ELEMENT_SET_NO,REV_AT_EPOCH,BSTAR,MEAN_MOTION_DOT,MEAN_MOTION_DDOT
SIRION PATHFINDER-2,2018-099B,2026-06-14T14:31:18.812640,15.14528861,.0007378,97.4257,214.7237,315.9983,44.0661,0,U,43759,999,41223,.25357E-3,.461E-4,0
CORVUS BC4,2018-099K,2026-06-14T01:53:34.987488,15.12472471,.00086003,97.4066,208.1499,23.1106,337.0510,0,U,43767,999,41193,.27274487E-3,.4685E-4,0
M2 PATHFINDER,2020-037E,2026-06-14T18:51:35.241984,15.04668685,.0012336,97.8150,356.9908,153.3678,206.8184,0,U,45727,999,32513,.1445E-3,.1971E-4,0
NETSAT-4,2020-068U,2026-06-14T12:46:19.180416,15.43786488,.0004218,97.8597,173.5596,350.1398,9.9765,0,U,46504,999,31536,.3607E-3,.16243E-3,0
NETSAT-3,2020-068V,2026-06-14T12:52:24.941856,15.42596190,.0004578,97.8646,171.7838,11.5290,348.6060,0,U,46505,999,31527,.38862E-3,.16823E-3,0
NETSAT-1,2020-068W,2026-06-14T17:20:55.084128,15.34593067,.0005313,97.8739,166.3452,39.8526,320.3105,0,U,46506,999,31492,.34425E-3,.1146E-3,0
NETSAT-2,2020-068X,2026-06-14T18:28:52.586112,15.45907771,.000376,97.8609,173.7025,34.0280,326.1208,0,U,46507,999,31536,.43681E-3,.21176E-3,0
GREENCUBE (IO-117),2022-080E,2026-06-13T07:02:28.697280,6.42583230,.00089108,70.1444,299.5995,290.4576,69.5127,0,U,53109,999,9181,0,-.3E-7,0
SITRO-AIS 5 (KATYS),2023-091L,2026-06-14T20:17:32.139168,15.29411084,.0012792,97.5066,229.7224,110.7184,249.5429,0,U,57176,999,16398,.41177E-3,.117E-3,0
SITRO-AIS 6 (CHIRKIN),2023-091AC,2026-06-14T19:39:26.964576,15.25896071,.0013109,97.5073,228.8274,113.7297,246.5318,0,U,57192,999,16392,.35704E-3,.9102E-4,0
SITRO-AIS 8 (ANOKHIN),2023-091AD,2026-06-14T20:47:56.238432,15.32081486,.0011811,97.5063,231.3228,107.0421,253.2116,0,U,57193,999,16409,.45065E-3,.13918E-3,0
SITRO-AIS 7 (FARTUSHNIY),2023-091AE,2026-06-14T19:43:17.276736,15.25585097,.0012958,97.5070,228.6562,114.6397,245.6192,0,U,57194,999,16391,.35674E-3,.9009E-4,0
SITRO-AIS 10 (BURDAEV),2023-091AK,2026-06-14T20:13:44.595264,15.38535588,.0007649,97.5088,236.3287,87.1315,273.0805,0,U,57199,999,16440,.49443E-3,.18762E-3,0
SITRO-AIS 9 (SHCHUKIN),2023-091AM,2026-06-14T17:43:18.795072,15.38042216,.0007899,97.5087,235.9537,87.5534,272.6615,0,U,57201,999,16437,.48464E-3,.18095E-3,0
SITRO-AIS 12 (SMIRENNIY),2023-091AQ,2026-06-14T20:37:48.881856,15.38338684,.000745,97.5099,236.5434,82.2833,277.9258,0,U,57204,999,16441,.49751E-3,.18757E-3,0
SITRO-AIS 11 (SHEFFER),2023-091AU,2026-06-14T19:24:24.801696,15.38761696,.0007354,97.5097,236.7363,82.6754,277.5327,0,U,57208,999,16442,.49943E-3,.19092E-3,0
SITRO-AIS 25,2024-039R,2026-06-14T19:55:30.219168,14.93503429,.014378,95.3912,233.4727,337.0788,22.4061,0,U,59066,999,12437,.17261E-3,.2191E-4,0
SITRO-AIS 26,2024-039S,2026-06-14T19:57:01.050624,14.93299603,.0144126,95.3913,233.3717,337.6529,21.8455,0,U,59067,999,12436,.17859E-3,.2257E-4,0
SITRO-AIS 27,2024-039T,2026-06-14T19:15:07.705728,14.93719894,.0143051,95.3917,233.6221,336.3862,23.0838,0,U,59068,999,12438,.23823E-3,.3049E-4,0
SITRO-AIS 28,2024-039U,2026-06-14T20:19:10.971264,14.93751859,.0142993,95.3914,233.6998,336.0318,23.4293,0,U,59071,999,12439,.21386E-3,.2736E-4,0
GRBBETA,2024-128C,2026-06-14T11:58:27.666048,15.06624478,.00409774,61.9892,225.6981,134.1230,226.3246,0,U,60237,999,10586,.22869814E-3,.325E-4,0
OOV-CUBE (TUBSAT-30),2024-128F,2026-06-14T17:26:18.436128,15.02765736,.0044922,61.9946,234.1532,133.1554,227.3306,0,U,60240,999,10574,.16016E-3,.1982E-4,0
ROBUSTA-3A (MEDITERRANEE),2024-128J,2026-06-14T11:44:05.147808,15.11651785,.00416343,61.9855,217.7867,127.6328,232.8557,0,U,60243,999,10601,.35464548E-3,.5962E-4,0
LASARSAT,2024-247Q,2026-06-13T14:48:20.082240,15.46168743,.0008375,44.9751,282.2745,311.5212,48.4959,0,U,62391,999,8276,.65515E-3,.32689E-3,0
CROCUBE,2024-247T,2026-06-14T14:05:15.116064,15.48102542,.0008187,44.9722,274.1999,320.7516,39.2780,0,U,62394,999,8294,.65094E-3,.34757E-3,0
FORESAIL-1 PRIME,2025-276DS,2026-06-14T18:09:10.152000,15.18682170,.0003926,97.4203,239.0712,108.9082,251.2578,0,U,66778,999,3003,.23468E-3,.4799E-4,0
KNACKSAT-2,1998-067XZ,2026-06-14T15:50:06.120384,15.59771864,.0009408,51.6308,307.1872,204.1419,155.9134,0,U,67683,999,1988,.55154E-3,.44887E-3,0
