SIRION PATHFINDER-2     
1 43759U 18099B   26165.60507885  .00004610  00000+0  25357-3 0  9999
2 43759  97.4257 214.7237 0007378 315.9983  44.0661 15.14528861412237
CORVUS BC4              
1 43767U 18099K   26165.07887717  .00004685  00000+0  27274-3 0  9996
2 43767  97.4066 208.1499 0008600  23.1106 337.0510 15.12472471411932
M2 PATHFINDER           
1 45727U 20037E   26165.78582456  .00001971  00000+0  14450-3 0  9996
2 45727  97.8150 356.9908 0012336 153.3678 206.8184 15.04668685325137
NETSAT-4                
1 46504U 20068U   26165.53216644  .00016243  00000+0  36070-3 0  9990
2 46504  97.8597 173.5596 0004218 350.1398   9.9765 15.43786488315364
NETSAT-3                
1 46505U 20068V   26165.53639979  .00016823  00000+0  38862-3 0  9996
2 46505  97.8646 171.7838 0004578  11.5290 348.6060 15.42596190315276
NETSAT-1                
1 46506U 20068W   26165.72285977  .00011460  00000+0  34425-3 0  9996
2 46506  97.8739 166.3452 0005313  39.8526 320.3105 15.34593067314924
NETSAT-2                
1 46507U 20068X   26165.77005308  .00021176  00000+0  43681-3 0  9999
2 46507  97.8609 173.7025 0003760  34.0280 326.1208 15.45907771315367
GREENCUBE (IO-117)      
1 53109U 22080E   26164.29338770 -.00000003  00000+0  00000+0 0  9990
2 53109  70.1444 299.5995 0008910 290.4576  69.5127  6.42583230 91811
SITRO-AIS 5 (KATYS)     
1 57176U 23091L   26165.84551087  .00011700  00000+0  41177-3 0  9990
2 57176  97.5066 229.7224 0012792 110.7184 249.5429 15.29411084163989
SITRO-AIS 6 (CHIRKIN)   
1 57192U 23091AC  26165.81906209  .00009102  00000+0  35704-3 0  9997
2 57192  97.5073 228.8274 0013109 113.7297 246.5318 15.25896071163928
SITRO-AIS 8 (ANOKHIN)   
1 57193U 23091AD  26165.86662313  .00013918  00000+0  45065-3 0  9999
2 57193  97.5063 231.3228 0011811 107.0421 253.2116 15.32081486164093
SITRO-AIS 7 (FARTUSHNIY)
1 57194U 23091AE  26165.82172774  .00009009  00000+0  35674-3 0  9994
2 57194  97.5070 228.6562 0012958 114.6397 245.6192 15.25585097163919
SITRO-AIS 10 (BURDAEV)  
1 57199U 23091AK  26165.84287726  .00018762  00000+0  49443-3 0  9990
2 57199  97.5088 236.3287 0007649  87.1315 273.0805 15.38535588164403
SITRO-AIS 9 (SHCHUKIN)  
1 57201U 23091AM  26165.73841198  .00018095  00000+0  48464-3 0  9992
2 57201  97.5087 235.9537 0007899  87.5534 272.6615 15.38042216164374
SITRO-AIS 12 (SMIRENNIY)
1 57204U 23091AQ  26165.85959354  .00018757  00000+0  49751-3 0  9997
2 57204  97.5099 236.5434 0007450  82.2833 277.9258 15.38338684164413
SITRO-AIS 11 (SHEFFER)  
1 57208U 23091AU  26165.80862039  .00019092  00000+0  49943-3 0  9995
2 57208  97.5097 236.7363 0007354  82.6754 277.5327 15.38761696164424
SITRO-AIS 25            
1 59066U 24039R   26165.83021087  .00002191  00000+0  17261-3 0  9995
2 59066  95.3912 233.4727 0143780 337.0788  22.4061 14.93503429124376
SITRO-AIS 26            
1 59067U 24039S   26165.83126216  .00002257  00000+0  17859-3 0  9992
2 59067  95.3913 233.3717 0144126 337.6529  21.8455 14.93299603124365
SITRO-AIS 27            
1 59068U 24039T   26165.80217252  .00003049  00000+0  23823-3 0  9999
2 59068  95.3917 233.6221 0143051 336.3862  23.0838 14.93719894124385
SITRO-AIS 28            
1 59071U 24039U   26165.84665476  .00002736  00000+0  21386-3 0  9996
2 59071  95.3914 233.6998 0142993 336.0318  23.4293 14.93751859124391
GRBBETA                 
1 60237U 24128C   26165.49893132  .00003250  00000+0  22870-3 0  9995
2 60237  61.9892 225.6981 0040977 134.1230 226.3246 15.06624478105867
OOV-CUBE (TUBSAT-30)    
1 60240U 24128F   26165.72660227  .00001982  00000+0  16016-3 0  9997
2 60240  61.9946 234.1532 0044922 133.1554 227.3306 15.02765736105744
ROBUSTA-3A (MEDITERRAN*)
1 60243U 24128J   26165.48894847  .00005962  00000+0  35465-3 0  9991
2 60243  61.9855 217.7867 0041634 127.6328 232.8557 15.11651785106016
LASARSAT                
1 62391U 24247Q   26164.61689910  .00032689  00000+0  65515-3 0  9991
2 62391  44.9751 282.2745 0008375 311.5212  48.4959 15.46168743 82768
CROCUBE                 
1 62394U 24247T   26165.58698051  .00034757  00000+0  65094-3 0  9997
2 62394  44.9722 274.1999 0008187 320.7516  39.2780 15.48102542 82947
FORESAIL-1 PRIME        
1 66778U 25276DS  26165.75636750  .00004799  00000+0  23468-3 0  9999
2 66778  97.4203 239.0712 0003926 108.9082 251.2578 15.18682170 30038
KNACKSAT-2              
1 67683U 98067XZ  26165.65979306  .00044887  00000+0  55154-3 0  9998
2 67683  51.6308 307.1872 0009408 204.1419 155.9134 15.59771864 19882
